full_name,e,q,i,om,w,ad,tp_cal,per_y,class,data_arc,condition_code,n_obs_used,two_body,A1,A2,A3,DT,M1,K1,M2,K2,PC,diameter,extent,albedo,rot_per,GM
"     P/2009 O3 (Hill)",.6868800549996673,2.449979551827111,16.21752700237298,183.7638694711861,154.5521989545966,13.1988450660011,20090518.6043912,21.8869776121997,JFc,163,4,328,,,,,,15.2,4.5,,,,,,,,
"     C/2009 O4 (Hill)",1.001336314611524,2.563789224081408,95.82327714615742,172.9365184783596,223.7319409757209,,20100101.2762889,,HYP,137,,764,,,,,,4.9,21.,12.9,5.,0.03,,,,,
"     C/2009 P1 (Garradd)",1.000997441813209,1.550535580501496,106.1772915967264,325.9972284743513,90.74706548333198,,20111223.6775558,,HYP,1978,,9044,,1.989629569617839E-8,-9.989061904901734E-10,,,8.8,4.5,,,,,,,,
"     C/2009 P2 (Boattini)",1.001538779429425,6.543972532527065,163.4529387916205,60.36496705679936,76.03240209071359,,20100210.5107995,,HYP,1060,,507,,,,,,11.4,4.5,,,,,,,,
"     P/2009 Q5 (McNaught)",.609052850009446,2.918511671282672,40.90482225387376,160.139863948254,209.2749179936109,12.01195487056673,20090908.5767256,20.3973278615048,JFc,171,3,331,,,,,,13.1,4.5,,,,,,,,
"     C/2009 R1 (McNaught)",1.000413202490796,.4050868943926803,77.03076498095443,322.6226629291746,130.6931027466904,,20100702.6781501,,HYP,315,,751,,,,,,9.9,6.75,,,,,,,,
"     C/2009 S3 (Lemmon)",1.001419165834663,6.474514637878233,60.38460099167354,225.1325296041105,129.7608599733522,,20111211.2507047,,HYP,1586,,278,,,,,,11.7,4.5,,,,,,,,
"     C/2009 T1 (McNaught)",.9983074266778597,6.220409381473258,89.89393225979154,54.40738633747255,282.5290506585912,7344.018779792601,20091008.2532287,222800.118121431,COM,725,,141,,,,,,8.1,7.5,11.2,5.,0.03,,,,,
"     P/2009 T2 (La Sagra)",.7689905856432068,1.754749552209695,28.10638609176597,215.9856324474208,215.4709136579588,13.43726811594898,20100112.8415135,20.935647337986,JFc,182,3,882,,,,,,13.8,10.5,15.8,5.,0.03,,,,,
"     C/2009 T3 (LINEAR)",.9994708513061257,2.281140242536718,148.7418178214766,60.09301710133919,32.44778903709462,8619.644110426205,20100112.0565196,283054.190473721,COM,301,,401,,,,,,13.6,8.75,,,,,,,,
"     C/2009 U1 (Garradd)",1.015009237069738,5.382604981428634,91.23607043896649,43.3854615225045,269.0430110232571,,20081007.9185520,,HYP,2,,10,T,,,,,7.8,10.,11.9,5.,0.03,,,,,
"     C/2009 U3 (Hill)",.9915765087278947,1.414424588668167,51.26076675878746,49.32288318921394,77.70140022082248,334.4141631020647,20100320.2547389,2175.90386373424,COM,241,,602,,,,,,15.4,6.,,,,,,,,
"     P/2009 U4 (McNaught)",.6752753046142818,1.649419084552493,10.09431547815688,55.6830877565936,259.897969764257,8.509457699322912,20090908.9488807,11.4480560749815,JFc,3879,2,102,,,,,,13.9,12.5,17.1,5.,0.03,,,,,
"     C/2009 U5 (Grauer)",.9994240212136143,6.094240030878758,25.47267563939661,121.1740914722554,23.81351304421512,21155.24077760179,20100622.4932182,1088373.10924162,JFc,526,,182,,,,,,11.8,4.5,,,,,,,,
"     C/2009 UG89 (Lemmon)",1.007959783401028,3.931171206981027,130.0998277888015,321.0070613051065,60.65133772181098,,20101216.2621954,,HYP,918,,966,,,,,,5.2,15.75,12.0,5.,0.03,,,,,
"     C/2009 W2 (Boattini)",.999553883256491,6.90713369547101,164.4905237743914,199.5800742079614,121.3259575923817,30958.68111632825,20100501.6708715,1926558.54374279,COM,686,,93,,,,,,6.9,10.,11.7,5.,0.03,,,,,
"     P/2009 WX51 (Catalina)",.7402937988877034,.7999563761832718,9.59259893347728,31.75840423810663,118.0162516918238,5.360515516725991,20100131.0753139,5.40610130193046,JFc,146,4,113,,,,,,20.6,10.,,,,,,,,
"     C/2009 Y1 (Catalina)",.99328973614478,2.520494547785312,107.3165615235073,160.2770456976384,127.3913282647622,748.7151057705502,20110128.9017422,7279.93412673382,COM,736,,1677,,,,,,6.4,14.25,11.5,5.,0.03,,,,,
"     P/2009 Y2 (Kowalski)",.6405255558675687,2.339192810141341,29.92960938254342,262.1265166849132,171.961933819713,10.67532239850907,20100330.6937535,16.5998896741438,JFc,103,5,178,,,,,,6.2,28.75,15.9,5.,0.03,,,,,
"     P/2010 A3 (Hill)",.7322295297346463,1.621827927769644,15.02825904745745,64.82907079752725,41.28186875128799,10.49174027982587,20100403.6811105,14.9063509640121,JFc,241,4,397,,,,,,6.4,38.25,16.0,5.,0.03,,,,,
"     C/2010 A4 (Siding Spring)",.9906259644167691,2.737995549463117,96.73013770441914,346.6855023540158,271.6852761319831,581.4278154617691,20101008.7405642,4991.91765145857,COM,655,,140,,,,,,7.1,15.5,13.5,5.,0.03,,,,,
"     C/2010 B1 (Cardinal)",.998994447126672,2.941486383691035,101.9776538367819,277.2139048238981,211.519956085382,5847.544274659794,20110207.0598794,158216.254387745,COM,988,,2087,,,,,,10.1,6.75,11.8,5.,0.03,,,,,
"     P/2010 C1 (Scotti)",.2591090851424597,5.234903523672213,9.142473574740862,142.0341619461492,3.665919539171023,8.8964710652004,20091201.6124379,18.7819128802789,JFc,854,4,95,,,,,,7.3,13.75,13.5,5.,0.03,,,,,
"     P/2010 D2 (WISE)",.4530244026325743,3.659053504677491,57.1769742299665,319.8358599165465,120.068180014667,9.720166783351395,20100305.1614885,17.3025222109421,JFC,428,4,66,,,,,,14.4,4.5,,,,,,,,
"     C/2010 D3 (WISE)",.9996287220477997,4.247541849359064,76.39482006562122,255.2346089610491,304.6426210513251,22876.41005813628,20100903.9208648,1223674.64655008,COM,1203,,87,,,,,,12.1,6.,,,,,,,,
"     C/2010 D4 (WISE)",.8894597296651968,7.148208572698182,105.6596518671232,266.7835142639501,44.48931867036035,122.1839986138369,20090330.9328857,520.023826628345,COM,1169,3,113,,,,,,11.6,4.5,,,,,,,,
"     C/2010 DG56 (WISE)",.9764363776999954,1.591451433561356,160.4173466758458,3.869456404747797,318.2894118826337,133.4855255523618,20100515.5622612,555.053962815375,COM,210,3,65,,,,,,17.8,4.5,,,,,,,,
"     C/2010 E1 (Garradd)",.9758861608920391,2.662196801154881,71.69780414004083,169.2924259164864,296.9866694147084,218.1402054406336,20091107.9640376,1160.02914253856,COM,63,,143,,,,,,11.9,9.75,14.8,5.,0.03,,,,,
"     P/2010 E2 (Jarnac)",.7223701008074761,2.39873318337915,15.43700003047995,177.8993706640858,8.294555078399933,14.88134500960925,20100407.9264522,25.3969616858988,JFc,128,4,344,,,,,,14.4,10.,16.4,5.,0.03,,,,,
"     C/2010 E3 (WISE)",.9922169094622411,2.269054650088048,96.35781398033313,117.2724645991792,50.43275312668848,580.8038619708713,20100405.5046227,4977.91541217045,COM,70,,33,,,,,,13.4,14.75,18.5,5.,0.03,,,,,
"     C/2010 E5 (Scotti)",.8427393911004639,3.88844462888347,18.9101637738186,17.08381074896005,147.8582491036396,45.56379463298475,20091121.4458623,122.9538554656,JFc,113,4,121,,,,,,7.3,17.,14.5,5.,0.03,,,,,
"     C/2010 F1 (Boattini)",.9475349150908285,3.587530040704582,64.93572087323412,344.3897909706914,127.5121490470241,133.1712323596758,20091110.5650362,565.452269838176,COM,100,4,301,,,,,,7.0,15.75,13.8,5.,0.03,,,,,
"     C/2010 F3 (Scotti)",.9132638842623999,5.446686045753883,4.647569321014638,157.4101534913772,31.25651383053776,120.1454274455065,20100804.5365442,497.630238193244,JFc,430,3,135,,,,,,13.2,4.5,,,,,,,,
"     C/2010 F4 (Machholz)",1.000036470434923,.6138264939977027,89.14566820689076,237.2905545520301,120.7088308616833,,20100406.1061552,,HYP,12,,81,T,,,,,13.9,10.,,,,,,,,
"     C/2010 FB87 (WISE-Garradd)",.9905008479762433,2.842763152599134,107.6253577857665,89.90219171992796,265.0258401521044,595.6871151964531,20101107.3900724,5177.16446231923,COM,755,,613,,,,,,11.1,4.5,,,,,,,,
"     C/2010 G1 (Boattini)",.9974761783692827,1.204547141369098,78.38709952492869,287.4483957706563,168.6314916080522,953.3376651200851,20100402.5400897,10426.9170094892,COM,69,,282,,,,,,14.1,4.5,16.0,5.,0.03,,,,,
"     C/2010 G2 (Hill)",.9794071274976454,1.980773857555262,103.7452832541167,246.7810058805305,137.4252805316589,190.3939283437792,20110902.0504143,943.376708627961,COM,1061,1,4103,,,,,,10.8,6.25,,,,,,,,
"     C/2010 G3 (WISE)",.9981419877202846,4.907650665905385,108.2675999646729,313.7183006100888,75.19842902924908,5277.781510739594,20100411.0748454,135751.861776561,COM,404,,252,,,,,,8.7,9.25,12.1,5.,0.03,,,,,
"     C/2010 H1 (Garradd)",.9996768185832923,2.745544345649212,36.53163220542724,347.384052955756,233.8202861497062,16987.98599967847,20100618.9002161,783035.272751598,COM,133,,43,,,,,,12.4,11.,16.2,5.,0.03,,,,,
"     P/2010 H2 (Vales)",.1929077165714307,3.107734396801548,14.25291236494805,64.30889926667975,130.1233349491815,4.59332894034184,20100309.3526095,7.55595306618738,JFc,141,4,1631,,,,,,7.0,10.,,,,,,,,
"     P/2010 H4 (Scotti)",.2721471145483182,4.820931378542509,2.314286022222926,44.84659602288561,181.188945234406,8.426062553619472,20100703.4352793,17.0466566917678,JFc,54,6,48,,,,,,10.8,10.,14.0,5.,0.03,,,,,
"     P/2010 H5 (Scotti)",.1564488022227643,6.025951078469447,14.08718373611171,24.89947620247765,175.1299397461786,8.261151101808117,20100417.7090830,19.0932313529699,JFc,389,4,67,,,,,,9.6,10.,13.2,5.,0.03,,,,,
"     C/2010 J1 (Boattini)",.9538278856884679,1.695658122071553,134.3849445974527,254.8133868845611,333.1091169501718,71.75378846946299,20100204.8196994,222.559430145519,COM,73,5,605,,,,,,11.4,15.,15.7,5.,0.03,,,,,
"     C/2010 J2 (McNaught)",.9994591944383925,3.386996133687951,125.8515399945362,311.7948456006354,4.616552714241796,12522.35746411293,20100603.8650072,495642.489623461,COM,413,,543,,,,,,10.1,9.5,12.9,5.,0.03,,,,,
"     P/2010 J3 (McMillan)",.7268227351027902,2.455110518763155,13.25507775342125,106.6611888500052,157.3124586544468,15.51937589896238,20100823.4638215,26.9431236407252,JFc,594,4,524,,,,,,11.4,11.5,14.7,5.,0.03,,,,,
"     C/2010 J4 (WISE)",.9999935925132187,1.085532677520908,162.2965271698157,316.4053868551018,83.75334172763874,338831.5065826623,20100503.1716013,69733421.7422956,COM,11,,43,T,,,,,19.6,10.,21.1,5.,0.03,,,,,
"     P/2010 JC81 (WISE)",.7773506455785488,1.810828664947294,38.69026902738793,30.76805234895705,12.57330798719058,14.45536415337627,20110426.5538371,23.1948774839766,HTC,1129,3,619,,,,,,10.3,10.,13.5,5.,0.03,,,,,
"     C/2010 KW7 (WISE)",.9742556867305437,2.570441622259956,147.0608373144838,104.7615010241332,332.3057549138623,197.1196099519335,20101011.3450453,997.695130378132,COM,293,3,146,,,,,,15.9,4.5,,,,4.870,,0.047,,
